NORAD_CAT_ID,OBJECT_NAME,OBJECT_TYPE,EPOCH,MEAN_MOTION,ECCENTRICITY,INCLINATION,RA_OF_ASC_NODE,ARG_OF_PERICENTER,MEAN_ANOMALY,BSTAR,MEAN_MOTION_DOT,MEAN_MOTION_DDOT,TLE_LINE0,TLE_LINE1,TLE_LINE2,SEMIMAJOR_AXIS,PERIOD,APOGEE,PERIGEE,DECAYED
56494.0,STARLINK-5530,PAYLOAD,2024-04-02 05:44:21,14.98337404,0.0002466,69.9991,85.6455,257.9837,102.1046,-0.00011044,-1.411e-05,0.0,0 STARLINK-5530,1 56494U 23064AY  24093.23914317 -.00001411  00000-0 -11044-3 0  9993,2 56494  69.9991  85.6455 0002466 257.9837 102.1046 14.98337404 50771,6950.17,96.107,573.749,570.321,0.0
56494.0,STARLINK-5530,PAYLOAD,2024-04-02 08:56:38,14.98336329,0.0002598,69.999,85.3087,268.1029,91.9833,-8.5988e-05,-1.119e-05,0.0,0 STARLINK-5530,1 56494U 23064AY  24093.37266290 -.00001119  00000-0 -85988-4 0  9992,2 56494  69.9990  85.3087 0002598 268.1029  91.9833 14.98336329 50438,6950.173,96.107,573.844,570.233,0.0
56494.0,STARLINK-5530,PAYLOAD,2024-04-02 23:21:49,14.9834109,0.0003465,69.9984,83.7934,267.3535,92.7228,6.2043e-05,6.47e-06,0.0,0 STARLINK-5530,1 56494U 23064AY  24093.97348862  .00000647  00000-0  62043-4 0  9994,2 56494  69.9984  83.7934 0003465 267.3535  92.7228 14.98341090 50529,6950.159,96.106,574.432,569.615,0.0
56494.0,STARLINK-5530,PAYLOAD,2024-04-03 05:46:20,14.98355457,0.0003265,69.9984,83.1216,272.5916,87.4869,0.00017851,2.039e-05,0.0,0 STARLINK-5530,1 56494U 23064AY  24094.24051431  .00002039  00000-0  17851-3 0  9991,2 56494  69.9984  83.1216 0003265 272.5916  87.4869 14.98355457 50923,6950.114,96.105,574.248,569.71,0.0
56494.0,STARLINK-5530,PAYLOAD,2024-04-03 08:58:36,14.98355573,0.0002716,69.9986,82.7815,268.6156,91.4692,0.0002181,2.512e-05,0.0,0 STARLINK-5530,1 56494U 23064AY  24094.37403096  .00002512  00000-0  21810-3 0  9999,2 56494  69.9986  82.7815 0002716 268.6156  91.4692 14.98355573 50587,6950.114,96.105,573.866,570.091,0.0
56494.0,STARLINK-5530,PAYLOAD,2024-04-03 16:59:17,14.9833727,0.000265,69.9997,81.9419,271.8406,88.245,-4.742e-06,-1.5e-06,0.0,0 STARLINK-5530,1 56494U 23064AY  24094.70784546 -.00000150  00000-0 -47420-5 0  9993,2 56494  69.9997  81.9419 0002650 271.8406  88.2450 14.98337270 50996,6950.17,96.107,573.877,570.194,0.0
56494.0,STARLINK-5530,PAYLOAD,2024-04-04 04:12:14,14.9832634,0.0002755,69.9988,80.7633,268.1475,91.9368,-7.1117e-05,-9.41e-06,0.0,0 STARLINK-5530,1 56494U 23064AY  24095.17517252 -.00000941  00000-0 -71117-4 0  9990,2 56494  69.9988  80.7633 0002755 268.1475  91.9368 14.98326340 51066,6950.204,96.107,573.984,570.154,0.0
56494.0,STARLINK-5530,PAYLOAD,2024-04-04 09:00:39,14.98323591,0.0003126,69.9987,80.2584,262.4133,97.6671,-0.00010778,-1.379e-05,0.0,0 STARLINK-5530,1 56494U 23064AY  24095.37545529 -.00001379  00000-0 -10778-3 0  9991,2 56494  69.9987  80.2584 0003126 262.4133  97.6671 14.98323591 50734,6950.213,96.107,574.25,569.905,0.0
56494.0,STARLINK-5530,PAYLOAD,2024-04-05 05:50:23,14.98335854,0.0003033,69.9992,78.0713,271.6875,88.3937,-0.00024375,-3.001e-05,0.0,0 STARLINK-5530,1 56494U 23064AY  24096.24333189 -.00003001  00000-0 -24375-3 0  9997,2 56494  69.9992  78.0713 0003033 271.6875  88.3937 14.98335854 51223,6950.175,96.107,574.148,569.932,0.0
56494.0,STARLINK-5530,PAYLOAD,2024-04-05 09:02:39,14.98336864,0.000307,69.9994,77.7344,271.5208,88.56,-0.00023177,-2.858e-05,0.0,0 STARLINK-5530,1 56494U 23064AY  24096.37685056 -.00002858  00000-0 -23177-3 0  9992,2 56494  69.9994  77.7344 0003070 271.5208  88.5600 14.98336864 50883,6950.172,96.107,574.17,569.903,0.0
56494.0,STARLINK-5530,PAYLOAD,2024-04-05 15:27:12,14.98339111,0.0002961,69.9997,77.061,270.1036,89.9783,-0.00028231,-3.461e-05,0.0,0 STARLINK-5530,1 56494U 23064AY  24096.64388971 -.00003461  00000-0 -28231-3 0  9995,2 56494  69.9997  77.0610 0002961 270.1036  89.9783 14.98339111 50927,6950.165,96.106,574.088,569.972,0.0
56494.0,STARLINK-5530,PAYLOAD,2024-04-06 04:16:17,14.98318881,0.0003145,69.9992,75.7141,271.2624,88.8175,8.4405e-05,9.14e-06,0.0,0 STARLINK-5530,1 56494U 23064AY  24097.17797461  .00000914  00000-0  84405-4 0  9996,2 56494  69.9992  75.7141 0003145 271.2624  88.8175 14.98318881 51369,6950.227,96.108,574.278,569.906,0.0
56494.0,STARLINK-5530,PAYLOAD,2024-04-06 09:04:41,14.98322468,0.0003088,69.9993,75.2095,268.9647,91.1158,0.00011907,1.328e-05,0.0,0 STARLINK-5530,1 56494U 23064AY  24097.37825238  .00001328  00000-0  11907-3 0  9998,2 56494  69.9993  75.2095 0003088 268.9647  91.1158 14.98322468 51035,6950.216,96.107,574.227,569.935,0.0
56494.0,STARLINK-5530,PAYLOAD,2024-04-06 21:53:45,14.98337592,0.000285,69.9995,73.8631,267.2836,92.7996,-0.00018701,-2.324e-05,0.0,0 STARLINK-5530,1 56494U 23064AY  24097.91233607 -.00002324  00000-0 -18701-3 0  9999,2 56494  69.9995  73.8631 0002850 267.2836  92.7996 14.98337592 51115,6950.169,96.107,574.015,570.054,0.0
56494.0,STARLINK-5530,PAYLOAD,2024-04-07 09:06:42,14.98326286,0.0003018,69.9997,72.6848,268.3501,91.7312,3.6274e-05,3.4e-06,0.0,0 STARLINK-5530,1 56494U 23064AY  24098.37965623  .00000340  00000-0  36274-4 0  9990,2 56494  69.9997  72.6848 0003018 268.3501  91.7312 14.98326286 51548,6950.204,96.107,574.167,569.972,0.0
56494.0,STARLINK-5530,PAYLOAD,2024-04-08 07:32:35,14.98327969,0.0002937,70.0,70.3281,267.7258,92.3565,1.8148e-05,1.24e-06,0.0,0 STARLINK-5530,1 56494U 23064AY  24099.31429747  .00000124  00000-0  18148-4 0  9997,2 56494  70.0000  70.3281 0002937 267.7258  92.3565 14.98327969 51325,6950.199,96.107,574.105,570.023,0.0
56494.0,STARLINK-5530,PAYLOAD,2024-04-08 15:33:15,14.98329385,0.0003026,69.9998,69.4862,269.384,90.6973,4.1772e-06,-4.3e-07,0.0,0 STARLINK-5530,1 56494U 23064AY  24099.64809696 -.00000043  00000-0  41772-5 0  9999,2 56494  69.9998  69.4862 0003026 269.3840  90.6973 14.98329385 51730,6950.195,96.107,574.163,569.957,0.0
56494.0,STARLINK-5530,PAYLOAD,2024-04-08 23:33:55,14.98328003,0.0003036,69.9997,68.6446,269.3383,90.7428,2.3284e-05,1.85e-06,0.0,0 STARLINK-5530,1 56494U 23064AY  24099.98189747  .00000185  00000-0  23284-4 0  9997,2 56494  69.9997  68.6446 0003036 269.3383  90.7428 14.98328003 51429,6950.199,96.107,574.174,569.954,0.0
56494.0,STARLINK-5530,PAYLOAD,2024-04-09 07:34:36,14.98330149,0.0003086,69.9998,67.8029,271.381,88.6996,4.6743e-05,4.65e-06,0.0,0 STARLINK-5530,1 56494U 23064AY  24100.31569559  .00000465  00000-0  46743-4 0  9996,2 56494  69.9998  67.8029 0003086 271.3810  88.6996 14.98330149 51476,6950.192,96.107,574.202,569.913,0.0
56494.0,STARLINK-5530,PAYLOAD,2024-04-09 15:35:16,14.98332012,0.0002897,69.9997,66.9611,270.4713,89.6114,-1.9226e-05,-3.22e-06,0.0,0 STARLINK-5530,1 56494U 23064AY  24100.64949621 -.00000322  00000-0 -19226-4 0  9994,2 56494  69.9997  66.9611 0002897 270.4713  89.6114 14.98332012 51882,6950.187,96.107,574.065,570.038,0.0
56494.0,STARLINK-5530,PAYLOAD,2024-04-09 21:59:48,14.98331013,0.0002932,69.9999,66.2875,268.2383,91.844,1.8976e-05,1.33e-06,0.0,0 STARLINK-5530,1 56494U 23064AY  24100.91653554  .00000133  00000-0  18976-4 0  9990,2 56494  69.9999  66.2875 0002932 268.2383  91.8440 14.98331013 51569,6950.19,96.107,574.093,570.017,0.0
56494.0,STARLINK-5530,PAYLOAD,2024-04-10 07:36:36,14.98333274,0.0002968,69.9999,65.278,269.4213,90.6606,3.9629e-05,3.8e-06,0.0,0 STARLINK-5530,1 56494U 23064AY  24101.31709302  .00000380  00000-0  39629-4 0  9990,2 56494  69.9999  65.2780 0002968 269.4213  90.6606 14.98333274 51626,6950.183,96.107,574.111,569.985,0.0
56494.0,STARLINK-5530,PAYLOAD,2024-04-10 22:01:49,14.98326925,0.0002883,70.0004,63.7639,269.9657,90.1171,-1.8446e-05,-3.13e-06,0.0,0 STARLINK-5530,1 56494U 23064AY  24101.91793856 -.00000313  00000-0 -18446-4 0  9995,2 56494  70.0004  63.7639 0002883 269.9657  90.1171 14.98326925 51712,6950.202,96.107,574.071,570.064,0.0
56494.0,STARLINK-5530,PAYLOAD,2024-04-11 04:26:22,14.98326149,0.0002662,70.001,63.0902,264.6699,95.4156,2.5684e-05,2.13e-06,0.0,0 STARLINK-5530,1 56494U 23064AY  24102.18497805  .00000213  00000-0  25684-4 0  9999,2 56494  70.0010  63.0902 0002662 264.6699  95.4156 14.98326149 52112,6950.205,96.107,573.92,570.22,0.0
56494.0,STARLINK-5530,PAYLOAD,2024-04-11 14:03:12,14.98299851,0.0002911,70.0001,62.0799,269.5496,90.5329,-0.00033251,-4.055e-05,0.0,0 STARLINK-5530,1 56494U 23064AY  24102.58556625 -.00004055  00000-0 -33251-3 0  9997,2 56494  70.0001  62.0799 0002911 269.5496  90.5329 14.98299851 51814,6950.286,96.109,574.174,570.128,0.0
56494.0,STARLINK-5530,PAYLOAD,2024-04-11 22:03:53,14.98298883,0.0002839,70.0006,61.2383,269.6051,90.4783,-0.00032765,-3.997e-05,0.0,0 STARLINK-5530,1 56494U 23064AY  24102.91937296 -.00003997  00000-0 -32765-3 0  9994,2 56494  70.0006  61.2383 0002839 269.6051  90.4783 14.98298883 51868,6950.289,96.109,574.127,570.181,0.0
56494.0,STARLINK-5530,PAYLOAD,2024-04-12 04:28:25,14.98309492,0.0002073,70.0027,60.568,267.8819,92.2103,-9.6616e-05,-1.245e-05,0.0,0 STARLINK-5530,1 56494U 23064AY  24103.18640520 -.00001245  00000-0 -96616-4 0  9995,2 56494  70.0027  60.5680 0002073 267.8819  92.2103 14.98309492 52265,6950.256,96.108,573.562,570.681,0.0
56494.0,STARLINK-5530,PAYLOAD,2024-04-12 07:40:40,14.98324359,0.0003019,70.0006,60.2287,257.7643,102.3178,-7.6678e-06,-1.84e-06,0.0,0 STARLINK-5530,1 56494U 23064AY  24103.31991099 -.00000184  00000-0 -76678-5 0  9998,2 56494  70.0006  60.2287 0003019 257.7643 102.3178 14.98324359 52282,6950.21,96.107,574.174,569.977,0.0
56494.0,STARLINK-5530,PAYLOAD,2024-04-12 22:05:51,14.98336584,0.0003201,70.0003,58.7131,272.2938,87.7854,0.0001372,1.545e-05,0.0,0 STARLINK-5530,1 56494U 23064AY  24103.92073975  .00001545  00000-0  13720-3 0  9996,2 56494  70.0003  58.7131 0003201 272.2938  87.7854 14.98336584 52012,6950.173,96.107,574.262,569.813,0.0
56494.0,STARLINK-5530,PAYLOAD,2024-04-13 04:30:23,14.98344009,0.0002992,70.0006,58.0401,267.9773,92.1043,0.00021239,2.443e-05,0.0,0 STARLINK-5530,1 56494U 23064AY  24104.18777170  .00002443  00000-0  21239-3 0  9995,2 56494  70.0006  58.0401 0002992 267.9773  92.1043 14.98344009 52417,6950.15,96.106,574.094,569.935,0.0
